LEMUR-2-ARIANNA         
1 62699U 25009CU  26064.20717485  .00010356  00000+0  81978-3 0  9990
2 62699  97.7018 146.5517 0004472 156.3640 203.7790 15.00782096 61954
LEMUR-2-ALISIA          
1 62706U 25009DB  26064.20485348  .00010270  00000+0  80723-3 0  9991
2 62706  97.7064 147.2016 0006389 169.9984 190.1368 15.01047799 84552
LEMUR-2-ROUNDTRIPPER    
1 62711U 25009DG  26064.23136086  .00011402  00000+0  87432-3 0  9994
2 62711  97.7306 147.1904 0004785 136.5683 223.5919 15.01969130 62018
LEMUR-2-MYNAMEISJEFF    
1 62712U 25009DH  26064.22989591  .00011650  00000+0  89361-3 0  9999
2 62712  97.7355 147.5086 0003805 163.0634 197.0718 15.01958366 62012
LEMUR-2-LEIA-PHILIP     
1 63246U 25052AN  26064.20241548  .00007625  00000+0  67459-3 0  9992
2 63246  97.6968 317.8723 0002810 191.6993 168.4163 14.96569415 53117
LEMUR-2-LIA-MARTIN      
1 63248U 25052AQ  26064.22432169  .00007554  00000+0  66554-3 0  9993
2 63248  97.7012 318.2523 0003174 155.1119 205.0256 14.96736985 53122
LEMUR-2-DELOITTE-1      
1 63259U 25052BB  26063.52453204  .00007765  00000+0  68409-3 0  9995
2 63259  97.7053 317.8749 0003261  89.6904 270.4692 14.96728959 53036
LEMUR-2-EMERSONROSE     
1 63261U 25052BD  26063.93640883  .00007694  00000+0  65342-3 0  9998
2 63261  97.7038 318.6307 0003266  61.7296 298.4255 14.98159757 53122
LEMUR-2-MARACHE-FRAN    
1 63262U 25052BE  26064.23599916  .00009061  00000+0  75567-3 0  9993
2 63262  97.6999 319.1164 0002352  43.3992 316.7416 14.98816373 53182
LEMUR-2-THEFALCONER     
1 63264U 25052BG  26064.20407684  .00006328  00000+0  56258-3 0  9991
2 63264  97.6992 318.2773 0002660  30.8100 329.3277 14.96446650 53132
LEMUR-2-UNTITLED-SC     
1 63351U 25061A   26064.19544222  .00006314  00000+0  36374-3 0  9998
2 63351  97.5554  40.4356 0017181 263.5841  96.3434 15.12637354 51860
LEMUR-2-ESPERANZA       
1 63352U 25061B   26063.98001100  .00005627  00000+0  32404-3 0  9994
2 63352  97.5558  40.2927 0016730 263.6086  96.3239 15.12710216 51837
LEMUR-2-KREMPEL-BRO2    
1 63353U 25061C   26063.97023848  .00005839  00000+0  33223-3 0  9992
2 63353  97.5603  40.6839 0017724 255.6207 104.3057 15.13113709 51849
LEMUR-2-THERMORAPTOR    
1 63354U 25061D   26063.82485148  .00006668  00000+0  37803-3 0  9991
2 63354  97.5608  40.5968 0017567 255.0756 104.8530 15.13188622 51820
LEMUR-2-NEUROSPICY      
1 63355U 25061E   26063.47375442  .00009132  00000+0  51500-3 0  9997
2 63355  97.5536  39.9567 0015307 260.5924  99.3577 15.13301373 51779
LEMUR-2-TILLINFINITY    
1 63356U 25061F   26064.21032653  .00007236  00000+0  40215-3 0  9999
2 63356  97.5524  40.9045 0016649 244.8237 115.1268 15.13883978 51907
