[{"OBJECT_NAME":"LEMUR-2-ARIANNA","OBJECT_ID":"2025-009CU","EPOCH":"2026-03-05T04:58:19.907040","MEAN_MOTION":15.00782096,"ECCENTRICITY":0.0004472,"INCLINATION":97.7018,"RA_OF_ASC_NODE":146.5517,"ARG_OF_PERICENTER":156.364,"MEAN_ANOMALY":203.779,"EPHEMERIS_TYPE":0,"CLASSIFICATION_TYPE":"U","NORAD_CAT_ID":62699,"ELEMENT_SET_NO":999,"REV_AT_EPOCH":6195,"BSTAR":0.00081977517,"MEAN_MOTION_DOT":0.00010356,"MEAN_MOTION_DDOT":0},{"OBJECT_NAME":"LEMUR-2-ALISIA","OBJECT_ID":"2025-009DB","EPOCH":"2026-03-05T04:54:59.340672","MEAN_MOTION":15.01047799,"ECCENTRICITY":0.00063891,"INCLINATION":97.7064,"RA_OF_ASC_NODE":147.2016,"ARG_OF_PERICENTER":169.9984,"MEAN_ANOMALY":190.1368,"EPHEMERIS_TYPE":0,"CLASSIFICATION_TYPE":"U","NORAD_CAT_ID":62706,"ELEMENT_SET_NO":999,"REV_AT_EPOCH":8455,"BSTAR":0.00080722895,"MEAN_MOTION_DOT":0.0001027,"MEAN_MOTION_DDOT":0},{"OBJECT_NAME":"LEMUR-2-ROUNDTRIPPER","OBJECT_ID":"2025-009DG","EPOCH":"2026-03-05T05:33:09.578304","MEAN_MOTION":15.0196913,"ECCENTRICITY":0.00047857,"INCLINATION":97.7306,"RA_OF_ASC_NODE":147.1904,"ARG_OF_PERICENTER":136.5683,"MEAN_ANOMALY":223.5919,"EPHEMERIS_TYPE":0,"CLASSIFICATION_TYPE":"U","NORAD_CAT_ID":62711,"ELEMENT_SET_NO":999,"REV_AT_EPOCH":6201,"BSTAR":0.00087432186,"MEAN_MOTION_DOT":0.00011402,"MEAN_MOTION_DDOT":0},{"OBJECT_NAME":"LEMUR-2-MYNAMEISJEFF","OBJECT_ID":"2025-009DH","EPOCH":"2026-03-05T05:31:03.006624","MEAN_MOTION":15.01958366,"ECCENTRICITY":0.00038058,"INCLINATION":97.7355,"RA_OF_ASC_NODE":147.5086,"ARG_OF_PERICENTER":163.0634,"MEAN_ANOMALY":197.0718,"EPHEMERIS_TYPE":0,"CLASSIFICATION_TYPE":"U","NORAD_CAT_ID":62712,"ELEMENT_SET_NO":999,"REV_AT_EPOCH":6201,"BSTAR":0.00089361116,"MEAN_MOTION_DOT":0.0001165,"MEAN_MOTION_DDOT":0},{"OBJECT_NAME":"LEMUR-2-LEIA-PHILIP","OBJECT_ID":"2025-052AN","EPOCH":"2026-03-05T04:51:28.697472","MEAN_MOTION":14.96569415,"ECCENTRICITY":0.00028101,"INCLINATION":97.6968,"RA_OF_ASC_NODE":317.8723,"ARG_OF_PERICENTER":191.6993,"MEAN_ANOMALY":168.4163,"EPHEMERIS_TYPE":0,"CLASSIFICATION_TYPE":"U","NORAD_CAT_ID":63246,"ELEMENT_SET_NO":999,"REV_AT_EPOCH":5311,"BSTAR":0.00067459003,"MEAN_MOTION_DOT":7.625e-5,"MEAN_MOTION_DDOT":0},{"OBJECT_NAME":"LEMUR-2-LIA-MARTIN","OBJECT_ID":"2025-052AQ","EPOCH":"2026-03-05T05:23:01.394016","MEAN_MOTION":14.96736985,"ECCENTRICITY":0.00031742,"INCLINATION":97.7012,"RA_OF_ASC_NODE":318.2523,"ARG_OF_PERICENTER":155.1119,"MEAN_ANOMALY":205.0256,"EPHEMERIS_TYPE":0,"CLASSIFICATION_TYPE":"U","NORAD_CAT_ID":63248,"ELEMENT_SET_NO":999,"REV_AT_EPOCH":5312,"BSTAR":0.00066553778,"MEAN_MOTION_DOT":7.554e-5,"MEAN_MOTION_DDOT":0},{"OBJECT_NAME":"LEMUR-2-DELOITTE-1","OBJECT_ID":"2025-052BB","EPOCH":"2026-03-04T12:35:19.568256","MEAN_MOTION":14.96728959,"ECCENTRICITY":0.0003261,"INCLINATION":97.7053,"RA_OF_ASC_NODE":317.8749,"ARG_OF_PERICENTER":89.6904,"MEAN_ANOMALY":270.4692,"EPHEMERIS_TYPE":0,"CLASSIFICATION_TYPE":"U","NORAD_CAT_ID":63259,"ELEMENT_SET_NO":999,"REV_AT_EPOCH":5303,"BSTAR":0.00068409,"MEAN_MOTION_DOT":7.765e-5,"MEAN_MOTION_DDOT":0},{"OBJECT_NAME":"LEMUR-2-EMERSONROSE","OBJECT_ID":"2025-052BD","EPOCH":"2026-03-04T22:28:25.722912","MEAN_MOTION":14.98159757,"ECCENTRICITY":0.00032661,"INCLINATION":97.7038,"RA_OF_ASC_NODE":318.6307,"ARG_OF_PERICENTER":61.7296,"MEAN_ANOMALY":298.4255,"EPHEMERIS_TYPE":0,"CLASSIFICATION_TYPE":"U","NORAD_CAT_ID":63261,"ELEMENT_SET_NO":999,"REV_AT_EPOCH":5312,"BSTAR":0.00065341811,"MEAN_MOTION_DOT":7.694e-5,"MEAN_MOTION_DDOT":0},{"OBJECT_NAME":"LEMUR-2-MARACHE-FRAN","OBJECT_ID":"2025-052BE","EPOCH":"2026-03-05T05:39:50.327424","MEAN_MOTION":14.98816373,"ECCENTRICITY":0.00023528,"INCLINATION":97.6999,"RA_OF_ASC_NODE":319.1164,"ARG_OF_PERICENTER":43.3992,"MEAN_ANOMALY":316.7416,"EPHEMERIS_TYPE":0,"CLASSIFICATION_TYPE":"U","NORAD_CAT_ID":63262,"ELEMENT_SET_NO":999,"REV_AT_EPOCH":5318,"BSTAR":0.00075567075,"MEAN_MOTION_DOT":9.061e-5,"MEAN_MOTION_DDOT":0},{"OBJECT_NAME":"LEMUR-2-THEFALCONER","OBJECT_ID":"2025-052BG","EPOCH":"2026-03-05T04:53:52.238976","MEAN_MOTION":14.9644665,"ECCENTRICITY":0.00026601,"INCLINATION":97.6992,"RA_OF_ASC_NODE":318.2773,"ARG_OF_PERICENTER":30.81,"MEAN_ANOMALY":329.3277,"EPHEMERIS_TYPE":0,"CLASSIFICATION_TYPE":"U","NORAD_CAT_ID":63264,"ELEMENT_SET_NO":999,"REV_AT_EPOCH":5313,"BSTAR":0.00056258377,"MEAN_MOTION_DOT":6.328e-5,"MEAN_MOTION_DDOT":0},{"OBJECT_NAME":"LEMUR-2-UNTITLED-SC","OBJECT_ID":"2025-061A","EPOCH":"2026-03-05T04:41:26.207808","MEAN_MOTION":15.12637354,"ECCENTRICITY":0.00171816,"INCLINATION":97.5554,"RA_OF_ASC_NODE":40.4356,"ARG_OF_PERICENTER":263.5841,"MEAN_ANOMALY":96.3434,"EPHEMERIS_TYPE":0,"CLASSIFICATION_TYPE":"U","NORAD_CAT_ID":63351,"ELEMENT_SET_NO":999,"REV_AT_EPOCH":5186,"BSTAR":0.00036374047,"MEAN_MOTION_DOT":6.314e-5,"MEAN_MOTION_DDOT":0},{"OBJECT_NAME":"LEMUR-2-ESPERANZA","OBJECT_ID":"2025-061B","EPOCH":"2026-03-04T23:31:12.950400","MEAN_MOTION":15.12710216,"ECCENTRICITY":0.001673,"INCLINATION":97.5558,"RA_OF_ASC_NODE":40.2927,"ARG_OF_PERICENTER":263.6086,"MEAN_ANOMALY":96.3239,"EPHEMERIS_TYPE":0,"CLASSIFICATION_TYPE":"U","NORAD_CAT_ID":63352,"ELEMENT_SET_NO":999,"REV_AT_EPOCH":5183,"BSTAR":0.00032403825,"MEAN_MOTION_DOT":5.627e-5,"MEAN_MOTION_DDOT":0},{"OBJECT_NAME":"LEMUR-2-KREMPEL-BRO2","OBJECT_ID":"2025-061C","EPOCH":"2026-03-04T23:17:08.604672","MEAN_MOTION":15.13113709,"ECCENTRICITY":0.00177247,"INCLINATION":97.5603,"RA_OF_ASC_NODE":40.6839,"ARG_OF_PERICENTER":255.6207,"MEAN_ANOMALY":104.3057,"EPHEMERIS_TYPE":0,"CLASSIFICATION_TYPE":"U","NORAD_CAT_ID":63353,"ELEMENT_SET_NO":999,"REV_AT_EPOCH":5184,"BSTAR":0.00033222888,"MEAN_MOTION_DOT":5.839e-5,"MEAN_MOTION_DDOT":0},{"OBJECT_NAME":"LEMUR-2-THERMORAPTOR","OBJECT_ID":"2025-061D","EPOCH":"2026-03-04T19:47:47.167872","MEAN_MOTION":15.13188622,"ECCENTRICITY":0.00175677,"INCLINATION":97.5608,"RA_OF_ASC_NODE":40.5968,"ARG_OF_PERICENTER":255.0756,"MEAN_ANOMALY":104.853,"EPHEMERIS_TYPE":0,"CLASSIFICATION_TYPE":"U","NORAD_CAT_ID":63354,"ELEMENT_SET_NO":999,"REV_AT_EPOCH":5182,"BSTAR":0.00037802949,"MEAN_MOTION_DOT":6.668e-5,"MEAN_MOTION_DDOT":0},{"OBJECT_NAME":"LEMUR-2-NEUROSPICY","OBJECT_ID":"2025-061E","EPOCH":"2026-03-04T11:22:12.381888","MEAN_MOTION":15.13301373,"ECCENTRICITY":0.00153076,"INCLINATION":97.5536,"RA_OF_ASC_NODE":39.9567,"ARG_OF_PERICENTER":260.5924,"MEAN_ANOMALY":99.3577,"EPHEMERIS_TYPE":0,"CLASSIFICATION_TYPE":"U","NORAD_CAT_ID":63355,"ELEMENT_SET_NO":999,"REV_AT_EPOCH":5177,"BSTAR":0.00051500484,"MEAN_MOTION_DOT":9.132e-5,"MEAN_MOTION_DDOT":0},{"OBJECT_NAME":"LEMUR-2-TILLINFINITY","OBJECT_ID":"2025-061F","EPOCH":"2026-03-05T05:02:52.212192","MEAN_MOTION":15.13883978,"ECCENTRICITY":0.00166496,"INCLINATION":97.5524,"RA_OF_ASC_NODE":40.9045,"ARG_OF_PERICENTER":244.8237,"MEAN_ANOMALY":115.1268,"EPHEMERIS_TYPE":0,"CLASSIFICATION_TYPE":"U","NORAD_CAT_ID":63356,"ELEMENT_SET_NO":999,"REV_AT_EPOCH":5190,"BSTAR":0.00040215221,"MEAN_MOTION_DOT":7.236e-5,"MEAN_MOTION_DDOT":0}]
